{"type": "FeatureCollection", "features": [ {"type": "Feature", "properties": {"norad_id": 38779, "name": "GSAT-10 (GAGAN/PRN 128)", "group": "gnss", "lat": 0.03744677794119199, "lon": 18.892468590236938, "alt_km": 35791.75762828743, "timestamp": "2025-12-05T14:45:15.543357+00:00", "meta": {"OBJECT_NAME": "GSAT-10 (GAGAN/PRN 128)", "OBJECT_ID": "2012-051B", "EPOCH": "2025-12-04T14:07:17.340096", "MEAN_MOTION": 1.00268946, "ECCENTRICITY": 0.0002381, "INCLINATION": 0.0292, "RA_OF_ASC_NODE": 263.0358, "ARG_OF_PERICENTER": 234.9958, "MEAN_ANOMALY": 230.4072, "EPHEMERIS_TYPE": 0, "CLASSIFICATION_TYPE": "U", "NORAD_CAT_ID": 38779, "ELEMENT_SET_NO": 999, "REV_AT_EPOCH": 4814, "BSTAR": 0, "MEAN_MOTION_DOT": -1.49e-06, "MEAN_MOTION_DDOT": 0}, "tle": {"line1": "1 38779U 12051B   25338.58839514 -.00000149  00000+0  00000+0 0  9990", "line2": "2 38779   0.0292 263.0358 0002381 234.9958 230.4072  1.00268946 48141"}}, "geometry": {"type": "Point", "coordinates": [18.892468590236938, 0.03744677794119199]}}, {"type": "Feature", "properties": {"norad_id": 38833, "name": "GPS BIIF-3  (PRN 24)", "group": "gnss", "lat": 1.1642234440197716, "lon": -29.34022482833524, "alt_km": 20369.126011328495, "timestamp": "2025-12-05T14:45:15.543369+00:00", "meta": {"OBJECT_NAME": "GPS BIIF-3  (PRN 24)", "OBJECT_ID": "2012-053A", "EPOCH": "2025-12-01T21:10:58.228896", "MEAN_MOTION": 2.00564835, "ECCENTRICITY": 0.01754817, "INCLINATION": 53.5559, "RA_OF_ASC_NODE": 151.6834, "ARG_OF_PERICENTER": 63.8436, "MEAN_ANOMALY": 297.9871, "EPHEMERIS_TYPE": 0, "CLASSIFICATION_TYPE": "U", "NORAD_CAT_ID": 38833, "ELEMENT_SET_NO": 999, "REV_AT_EPOCH": 9548, "BSTAR": 0, "MEAN_MOTION_DOT": 1.16e-06, "MEAN_MOTION_DDOT": 0}, "tle": {"line1": "1 38833U 12053A   25335.88261839  .00000116  00000+0  00000+0 0  9995", "line2": "2 38833  53.5559 151.6834 0175481  63.8436 297.9871  2.00564835 95485"}}, "geometry": {"type": "Point", "coordinates": [-29.34022482833524, 1.1642234440197716]}}, {"type": "Feature", "properties": {"norad_id": 38857, "name": "GSAT0103 (GALILEO-FM3)", "group": "gnss", "lat": -3.094272978973458, "lon": -71.0409729750205, "alt_km": 23222.17820451968, "timestamp": "2025-12-05T14:45:15.543381+00:00", "meta": {"OBJECT_NAME": "GSAT0103 (GALILEO-FM3)", "OBJECT_ID": "2012-055A", "EPOCH": "2025-12-01T05:01:21.613152", "MEAN_MOTION": 1.70473256, "ECCENTRICITY": 0.00023005, "INCLINATION": 55.6823, "RA_OF_ASC_NODE": 106.9832, "ARG_OF_PERICENTER": 267.1494, "MEAN_ANOMALY": 92.7944, "EPHEMERIS_TYPE": 0, "CLASSIFICATION_TYPE": "U", "NORAD_CAT_ID": 38857, "ELEMENT_SET_NO": 999, "REV_AT_EPOCH": 8163, "BSTAR": 0, "MEAN_MOTION_DOT": 4.2e-07, "MEAN_MOTION_DDOT": 0}, "tle": {"line1": "1 38857U 12055A   25335.20927793  .00000042  00000+0  00000+0 0  9995", "line2": "2 38857  55.6823 106.9832 0002300 267.1494  92.7944  1.70473256 81637"}}, "geometry": {"type": "Point", "coordinates": [-71.0409729750205, -3.094272978973458]}}, {"type": "Feature", "properties": {"norad_id": 38953, "name": "BEIDOU-2 G6 (C02)", "group": "gnss", "lat": -3.2211672692889786, "lon": 20.102004006713617, "alt_km": 35756.798609266014, "timestamp": "2025-12-05T14:45:15.543393+00:00", "meta": {"OBJECT_NAME": "BEIDOU-2 G6 (C02)", "OBJECT_ID": "2012-059A", "EPOCH": "2025-12-04T17:33:05.126976", "MEAN_MOTION": 1.00270477, "ECCENTRICITY": 0.0007414, "INCLINATION": 3.9275, "RA_OF_ASC_NODE": 75.582, "ARG_OF_PERICENTER": 289.5187, "MEAN_ANOMALY": 56.0172, "EPHEMERIS_TYPE": 0, "CLASSIFICATION_TYPE": "U", "NORAD_CAT_ID": 38953, "ELEMENT_SET_NO": 999, "REV_AT_EPOCH": 4795, "BSTAR": 0, "MEAN_MOTION_DOT": -1.64e-06, "MEAN_MOTION_DDOT": 0}, "tle": {"line1": "1 38953U 12059A   25338.73130934 -.00000164  00000+0  00000+0 0  9996", "line2": "2 38953   3.9275  75.5820 0007414 289.5187  56.0172  1.00270477 47953"}}, "geometry": {"type": "Point", "coordinates": [20.102004006713617, -3.2211672692889786]}}, {"type": "Feature", "properties": {"norad_id": 38977, "name": "LUCH 5B (SDCM/PRN 125)", "group": "gnss", "lat": -7.4674338587768725, "lon": -80.81121223318426, "alt_km": 35762.321812406844, "timestamp": "2025-12-05T14:45:15.543407+00:00", "meta": {"OBJECT_NAME": "LUCH 5B (SDCM/PRN 125)", "OBJECT_ID": "2012-061A", "EPOCH": "2025-12-04T01:12:49.528800", "MEAN_MOTION": 1.00268796, "ECCENTRICITY": 0.00076251, "INCLINATION": 10.0615, "RA_OF_ASC_NODE": 51.7844, "ARG_OF_PERICENTER": 190.1475, "MEAN_ANOMALY": 193.0165, "EPHEMERIS_TYPE": 0, "CLASSIFICATION_TYPE": "U", "NORAD_CAT_ID": 38977, "ELEMENT_SET_NO": 999, "REV_AT_EPOCH": 4765, "BSTAR": 0, "MEAN_MOTION_DOT": -1.29e-06, "MEAN_MOTION_DDOT": 0}, "tle": {"line1": "1 38977U 12061A   25338.05057325 -.00000129  00000+0  00000+0 0  9993", "line2": "2 38977  10.0615  51.7844 0007625 190.1475 193.0165  1.00268796 47651"}}, "geometry": {"type": "Point", "coordinates": [-80.81121223318426, -7.4674338587768725]}}, {"type": "Feature", "properties": {"norad_id": 39155, "name": "COSMOS 2485 (747)", "group": "gnss", "lat": 27.131096040645023, "lon": 93.72176303475513, "alt_km": 19186.103446525485, "timestamp": "2025-12-05T14:45:15.543419+00:00", "meta": {"OBJECT_NAME": "COSMOS 2485 (747)", "OBJECT_ID": "2013-019A", "EPOCH": "2025-12-02T06:58:21.505152", "MEAN_MOTION": 2.13102877, "ECCENTRICITY": 0.00245683, "INCLINATION": 65.3079, "RA_OF_ASC_NODE": 80.2187, "ARG_OF_PERICENTER": 229.0905, "MEAN_ANOMALY": 130.6936, "EPHEMERIS_TYPE": 0, "CLASSIFICATION_TYPE": "U", "NORAD_CAT_ID": 39155, "ELEMENT_SET_NO": 999, "REV_AT_EPOCH": 9808, "BSTAR": 0, "MEAN_MOTION_DOT": -1.8e-07, "MEAN_MOTION_DDOT": 0}, "tle": {"line1": "1 39155U 13019A   25336.29052668 -.00000018  00000+0  00000+0 0  9992", "line2": "2 39155  65.3079  80.2187 0024568 229.0905 130.6936  2.13102877 98087"}}, "geometry": {"type": "Point", "coordinates": [93.72176303475513, 27.131096040645023]}}, {"type": "Feature", "properties": {"norad_id": 39166, "name": "GPS BIIF-4  (PRN 27)", "group": "gnss", "lat": -54.55321588709409, "lon": -167.64613133031736, "alt_km": 20444.431567407388, "timestamp": "2025-12-05T14:45:15.543430+00:00", "meta": {"OBJECT_NAME": "GPS BIIF-4  (PRN 27)", "OBJECT_ID": "2013-023A", "EPOCH": "2025-12-02T17:50:49.750368", "MEAN_MOTION": 2.00565046, "ECCENTRICITY": 0.0137297, "INCLINATION": 54.6608, "RA_OF_ASC_NODE": 276.9746, "ARG_OF_PERICENTER": 48.5033, "MEAN_ANOMALY": 312.6627, "EPHEMERIS_TYPE": 0, "CLASSIFICATION_TYPE": "U", "NORAD_CAT_ID": 39166, "ELEMENT_SET_NO": 999, "REV_AT_EPOCH": 9194, "BSTAR": 0, "MEAN_MOTION_DOT": -3.8e-07, "MEAN_MOTION_DDOT": 0}, "tle": {"line1": "1 39166U 13023A   25336.74363137 -.00000038  00000+0  00000+0 0  9997", "line2": "2 39166  54.6608 276.9746 0137297  48.5033 312.6627  2.00565046 91947"}}, "geometry": {"type": "Point", "coordinates": [-167.64613133031736, -54.55321588709409]}}, {"type": "Feature", "properties": {"norad_id": 39199, "name": "IRNSS-1A", "group": "gnss", "lat": -33.98143247954166, "lon": -5.377711105883195, "alt_km": 35802.82182689754, "timestamp": "2025-12-05T14:45:15.543442+00:00", "meta": {"OBJECT_NAME": "IRNSS-1A", "OBJECT_ID": "2013-034A", "EPOCH": "2025-12-02T19:49:26.431104", "MEAN_MOTION": 1.00279053, "ECCENTRICITY": 0.00216608, "INCLINATION": 35.2852, "RA_OF_ASC_NODE": 66.6964, "ARG_OF_PERICENTER": 185.4059, "MEAN_ANOMALY": 172.3398, "EPHEMERIS_TYPE": 0, "CLASSIFICATION_TYPE": "U", "NORAD_CAT_ID": 39199, "ELEMENT_SET_NO": 999, "REV_AT_EPOCH": 4539, "BSTAR": 0, "MEAN_MOTION_DOT": 6.5e-07, "MEAN_MOTION_DDOT": 0}, "tle": {"line1": "1 39199U 13034A   25336.82600036  .00000065  00000+0  00000+0 0  9995", "line2": "2 39199  35.2852  66.6964 0021660 185.4059 172.3398  1.00279053 45393"}}, "geometry": {"type": "Point", "coordinates": [-5.377711105883195, -33.98143247954166]}}, {"type": "Feature", "properties": {"norad_id": 39533, "name": "GPS BIIF-5  (PRN 30)", "group": "gnss", "lat": -52.984304725454315, "lon": 79.26337727147661, "alt_km": 20053.29747433571, "timestamp": "2025-12-05T14:45:15.543454+00:00", "meta": {"OBJECT_NAME": "GPS BIIF-5  (PRN 30)", "OBJECT_ID": "2014-008A", "EPOCH": "2025-12-03T17:38:50.271648", "MEAN_MOTION": 2.00573835, "ECCENTRICITY": 0.0078981, "INCLINATION": 53.6299, "RA_OF_ASC_NODE": 157.292, "ARG_OF_PERICENTER": 226.3864, "MEAN_ANOMALY": 132.9903, "EPHEMERIS_TYPE": 0, "CLASSIFICATION_TYPE": "U", "NORAD_CAT_ID": 39533, "ELEMENT_SET_NO": 999, "REV_AT_EPOCH": 8576, "BSTAR": 0, "MEAN_MOTION_DOT": 9.7e-07, "MEAN_MOTION_DDOT": 0}, "tle": {"line1": "1 39533U 14008A   25337.73530407  .00000097  00000+0  00000+0 0  9999", "line2": "2 39533  53.6299 157.2920 0078981 226.3864 132.9903  2.00573835 85765"}}, "geometry": {"type": "Point", "coordinates": [79.26337727147661, -52.984304725454315]}}, {"type": "Feature", "properties": {"norad_id": 39617, "name": "ASTRA 5B (EGNOS/PRN 123)", "group": "gnss", "lat": -0.046663967441831204, "lon": -40.47765079537096, "alt_km": 35778.078676083554, "timestamp": "2025-12-05T14:45:15.543465+00:00", "meta": {"OBJECT_NAME": "ASTRA 5B (EGNOS/PRN 123)", "OBJECT_ID": "2014-011B", "EPOCH": "2025-12-04T13:50:18.964896", "MEAN_MOTION": 1.00267772, "ECCENTRICITY": 0.000455, "INCLINATION": 0.0487, "RA_OF_ASC_NODE": 15.352, "ARG_OF_PERICENTER": 242.0014, "MEAN_ANOMALY": 47.3935, "EPHEMERIS_TYPE": 0, "CLASSIFICATION_TYPE": "U", "NORAD_CAT_ID": 39617, "ELEMENT_SET_NO": 999, "REV_AT_EPOCH": 4271, "BSTAR": 0, "MEAN_MOTION_DOT": 1.51e-06, "MEAN_MOTION_DDOT": 0}, "tle": {"line1": "1 39617U 14011B   25338.57660839  .00000151  00000+0  00000+0 0  9993", "line2": "2 39617   0.0487  15.3520 0004550 242.0014  47.3935  1.00267772 42717"}}, "geometry": {"type": "Point", "coordinates": [-40.47765079537096, -0.046663967441831204]}}]}